H1 CPF 01  gfz 2021 11 01 01  8051 terrasarx 
H2 0702601  6201 31698    2021 11 01 00 59 42 2021 11 06 00 00 42   120 1 1  0 0 0
H9
10 0 59522  75582.000000  0    2870987.065  -1720304.061  -6027960.468
10 0 59522  75702.000000  0    3357532.946  -2336426.173  -5550083.191
10 0 59522  75822.000000  0    3775299.537  -2919903.510  -4975178.845
10 0 59522  75942.000000  0    4117641.137  -3459295.138  -4313211.670
10 0 59522  76062.000000  0    4379399.095  -3943799.799  -3575685.464
10 0 59522  76182.000000  0    4556985.725  -4363474.745  -2775453.373
10 0 59522  76302.000000  0    4648439.284  -4709443.997  -1926499.493
10 0 59522  76422.000000  0    4653447.378  -4974090.694  -1043696.450
10 0 59522  76542.000000  0    4573336.668  -5151228.303   -142542.093
10 0 59522  76662.000000  0    4411029.037  -5236244.598    761118.292
10 0 59522  76782.000000  0    4170965.880  -5226215.794   1651378.539
10 0 59522  76902.000000  0    3859000.261  -5119985.886   2512561.318
10 0 59522  77022.000000  0    3482260.872  -4918210.724   3329501.775
10 0 59522  77142.000000  0    3048991.787  -4623365.513   4087821.749
10 0 59522  77262.000000  0    2568371.634  -4239714.656   4774187.104
10 0 59522  77382.000000  0    2050317.470  -3773245.891   5376543.722
10 0 59522  77502.000000  0    1505277.824  -3231570.922   5884327.960
10 0 59522  77622.000000  0     944019.210  -2623793.908   6288648.104
10 0 59522  77742.000000  0     377411.751  -1960352.861   6582433.633
10 0 59522  77862.000000  0    -183781.834  -1252836.684   6760551.927
10 0 59522  77982.000000  0    -729109.507   -513780.841   6819893.213
10 0 59522  78102.000000  0   -1248623.435    243555.898   6759421.400
10 0 59522  78222.000000  0   -1733060.831   1005428.914   6580190.822
10 0 59522  78342.000000  0   -2174008.678   1757856.274   6285328.873
10 0 59522  78462.000000  0   -2564050.475   2486874.421   5879984.911
10 0 59522  78582.000000  0   -2896892.175   3178797.802   5371246.042
10 0 59522  78702.000000  0   -3167466.442   3820477.905   4768019.926
10 0 59522  78822.000000  0   -3372012.899   4399557.480   4080884.802
10 0 59522  78942.000000  0   -3508131.926   4904714.714   3321908.221
10 0 59522  79062.000000  0   -3574810.743   5325891.903   2504436.473
10 0 59522  79182.000000  0   -3572420.891   5654502.211   1642857.911
10 0 59522  79302.000000  0   -3502686.903   5883609.042    752345.891
10 0 59522  79422.000000  0   -3368627.806   6008076.495   -151413.980
10 0 59522  79542.000000  0   -3174471.421   6024684.372  -1052509.606
10 0 59522  79662.000000  0   -2925544.086   5932203.431  -1935093.114
10 0 59522  79782.000000  0   -2628136.396   5731428.353  -2783669.534
10 0 59522  79902.000000  0   -2289351.002   5425169.750  -3583372.670
10 0 59522  80022.000000  0   -1916938.411   5018208.123  -4320227.617
10 0 59522  80142.000000  0   -1519122.746   4517207.847  -4981392.780
10 0 59522  80262.000000  0   -1104423.689   3930597.911  -5555376.936
10 0 59522  80382.000000  0    -681477.117   3268421.652  -6032231.398
10 0 59522  80502.000000  0    -258857.918   2542156.805  -6403712.989
10 0 59522  80622.000000  0     155090.350   1764511.564  -6663414.304
10 0 59522  80742.000000  0     552415.275    949202.072  -6806863.935
10 0 59522  80862.000000  0     925704.328    110712.903  -6831595.755
10 0 59522  80982.000000  0    1268219.662   -735955.859  -6737186.440
10 0 59522  81102.000000  0    1574016.221  -1575550.962  -6525260.362
10 0 59522  81222.000000  0    1838042.559  -2392833.096  -6199464.542
10 0 59522  81342.000000  0    2056223.885  -3172847.089  -5765413.661
10 0 59522  81462.000000  0    2225525.395  -3901193.691  -5230604.710
10 0 59522  81582.000000  0    2343994.863  -4564297.114  -4604297.136
10 0 59522  81702.000000  0    2410783.054  -5149660.046  -3897362.643
10 0 59522  81822.000000  0    2426141.900  -5646105.489  -3122107.012
10 0 59522  81942.000000  0    2391400.118  -6043999.692  -2292063.114
10 0 59522  82062.000000  0    2308916.514  -6335450.322  -1421758.582
10 0 59522  82182.000000  0    2182010.599  -6514474.428   -526460.921
10 0 59522  82302.000000  0    2014873.614  -6577128.910    378096.196
10 0 59522  82422.000000  0    1812459.317  -6521601.031   1275995.539
10 0 59522  82542.000000  0    1580360.612  -6348258.744   2151425.502
10 0 59522  82662.000000  0    1324671.407  -6059653.715   2988968.829
10 0 59522  82782.000000  0    1051839.747  -5660481.061   3773881.050
10 0 59522  82902.000000  0     768515.579  -5157496.502   4492355.171
10 0 59522  83022.000000  0     481396.895  -4559394.231   5131766.838
10 0 59522  83142.000000  0     197077.363  -3876647.130   5680896.603
10 0 59522  83262.000000  0     -78099.108  -3121312.924   6130123.994
10 0 59522  83382.000000  0    -338174.954  -2306812.203   6471589.779
10 0 59522  83502.000000  0    -577703.997  -1447685.392   6699326.070
10 0 59522  83622.000000  0    -791862.309   -559331.265   6809355.458
10 0 59522  83742.000000  0    -976543.505    342270.422   6799757.177
10 0 59522  83862.000000  0   -1128436.805   1240846.552   6670698.432
10 0 59522  83982.000000  0   -1245085.912   2120123.673   6424431.349
10 0 59522  84102.000000  0   -1324928.638   2964122.122   6065256.279
10 0 59522  84222.000000  0   -1367317.034   3757447.256   5599451.261
10 0 59522  84342.000000  0   -1372516.663   4485572.814   5035168.041
10 0 59522  84462.000000  0   -1341685.792   5135112.567   4382296.179
10 0 59522  84582.000000  0   -1276834.677   5694074.492   3652293.964
10 0 59522  84702.000000  0   -1180765.353   6152090.305   2857990.486
10 0 59522  84822.000000  0   -1056995.492   6500618.970   2013361.136
10 0 59522  84942.000000  0    -909662.957   6733115.754   1133277.289
10 0 59522  85062.000000  0    -743416.380   6845161.529    233238.714
10 0 59522  85182.000000  0    -563294.253   6834551.602   -670906.488
10 0 59522  85302.000000  0    -374595.297   6701340.312  -1563251.200
10 0 59522  85422.000000  0    -182744.025   6447836.781  -2428119.177
10 0 59522  85542.000000  0       6844.301   6078555.427  -3250345.932
10 0 59522  85662.000000  0     188896.631   5600125.229  -4015547.364
10 0 59522  85782.000000  0     358410.534   5021158.903  -4710371.461
10 0 59522  85902.000000  0     510774.521   4352085.488  -5322727.675
10 0 59522  86022.000000  0     641877.584   3604951.458  -5841990.389
10 0 59522  86142.000000  0     748204.991   2793194.670  -6259173.938
10 0 59522  86262.000000  0     826919.026   1931396.857  -6567076.696
10 0 59522  86382.000000  0     875923.639   1035020.747  -6760393.778
10 0 59523    102.000000  0     893911.417    120135.082  -6835799.475
10 0 59523    222.000000  0     880392.998   -796868.741  -6791998.358
10 0 59523    342.000000  0     835707.702  -1699564.014  -6629743.597
10 0 59523    462.000000  0     761016.194  -2571774.212  -6351824.517
10 0 59523    582.000000  0     658275.324  -3397856.220  -5963026.309
10 0 59523    702.000000  0     530193.911  -4162979.375  -5470056.634
10 0 59523    822.000000  0     380171.973  -4853391.479  -4881439.576
10 0 59523    942.000000  0     212223.423  -5456669.858  -4207380.143
10 0 59523   1062.000000  0      30883.000  -5961953.209  -3459597.837
10 0 59523   1182.000000  0    -158900.360  -6360147.632  -2651130.663
10 0 59523   1302.000000  0    -351881.704  -6644102.943  -1796113.396
10 0 59523   1422.000000  0    -542647.289  -6808754.717   -909531.131
10 0 59523   1542.000000  0    -725747.730  -6851225.788     -6953.254
10 0 59523   1662.000000  0    -895833.806  -6770884.778    895745.736
10 0 59523   1782.000000  0   -1047791.755  -6569360.686   1782673.038
10 0 59523   1902.000000  0   -1176874.340  -6250511.698   2638206.823
10 0 59523   2022.000000  0   -1278823.925  -5820348.479   3447280.506
10 0 59523   2142.000000  0   -1349983.743  -5286913.735   4195655.532
10 0 59523   2262.000000  0   -1387395.636  -4660121.955   4870174.724
10 0 59523   2382.000000  0   -1388881.976  -3951566.526   5458994.126
10 0 59523   2502.000000  0   -1353110.085  -3174295.641   5951790.545
10 0 59523   2622.000000  0   -1279636.702  -2342561.882   6339937.613
10 0 59523   2742.000000  0   -1168931.849  -1471555.355   6616649.301
10 0 59523   2862.000000  0   -1022383.427   -577123.726   6777093.036
10 0 59523   2982.000000  0    -842282.457    324517.928   6818468.885
10 0 59523   3102.000000  0    -631787.762   1217080.490   6740055.381
10 0 59523   3222.000000  0    -394870.233   2084494.665   6543221.647
10 0 59523   3342.000000  0    -136238.188   2911199.907   6231404.785
10 0 59523   3462.000000  0     138754.681   3682423.757   5810053.606
10 0 59523   3582.000000  0     424216.982   4384448.577   5286538.823
10 0 59523   3702.000000  0     713842.244   5004860.143   4670030.360
10 0 59523   3822.000000  0    1001044.145   5532774.952   3971341.838
10 0 59523   3942.000000  0    1279099.283   5959038.063   3202744.866
10 0 59523   4062.000000  0    1541299.925   6276394.683   2377758.441
10 0 59523   4182.000000  0    1781108.818   6479623.560   1510905.231
10 0 59523   4302.000000  0    1992312.008   6565629.067    617450.875
10 0 59523   4422.000000  0    2169167.797   6533490.309   -286872.713
10 0 59523   4542.000000  0    2306546.332   6384466.875  -1186152.108
10 0 59523   4662.000000  0    2400057.404   6121961.494  -2064580.216
10 0 59523   4782.000000  0    2446163.320   5751440.414  -2906741.178
10 0 59523   4902.000000  0    2442273.725   5280313.185  -3697886.641
10 0 59523   5022.000000  0    2386819.902   4717774.246  -4424196.596
10 0 59523   5142.000000  0    2279306.533   4074612.433  -5073018.506
10 0 59523   5262.000000  0    2120340.978   3362994.300  -5633081.372
10 0 59523   5382.000000  0    1911640.050   2596226.743  -6094682.943
10 0 59523   5502.000000  0    1656013.738   1788502.935  -6449847.135
10 0 59523   5622.000000  0    1357327.678    954638.630  -6692449.745
99
